LEMUR-1                 
1 40044U 14033AL  22310.47107256  .00001696  00000+0  25117-3 0  9993
2 40044  97.6578 131.3938 0059234  59.7632 300.9424 14.75185591450815
LEMUR-2-XIAOQING        
1 41871U 16062C   22309.92090497  .00055100  00000+0  11238-2 0  9999
2 41871  51.6346  21.0550 0004476  45.5170 314.6183 15.45657378331761
LEMUR-2-SOKOLSKY        
1 41872U 16062D   22310.22142293  .00038469  00000+0  79790-3 0  9994
2 41872  51.6791  30.0522 0002613 324.2863  35.7949 15.45332927331774
LEMUR-2-ANUBHAVTHAKUR   
1 41873U 16062E   22310.42807015  .00012946  00000+0  45104-3 0  9991
2 41873  51.6800  80.3568 0007106  62.9159 297.2546 15.29966787331058
LEMUR-2-WINGO           
1 41874U 16062F   22310.46461319  .00039444  00000+0  85552-3 0  9992
2 41874  51.6477  30.0212 0010813   9.6289 350.4902 15.43948618331707
LEMUR-2-JOBANPUTRA      
1 41991U 17008AV  22309.59718694  .00035416  00000+0  96126-3 0  9990
2 41991  97.2430   8.5922 0007382  93.0306 267.1784 15.37491520317821
LEMUR-2-SPIRE-MINIONS   
1 41992U 17008AW  22310.12013569  .00044773  00000+0  10243-2 0  9992
2 41992  97.2522  14.3199 0005546  81.2086 278.9790 15.42664399318199
LEMUR-2-SATCHMO         
1 41993U 17008AX  22310.40096089  .00021304  00000+0  61357-3 0  9990
2 41993  97.2439   9.7093 0007201  91.4406 268.7663 15.35744387317965
LEMUR-2-SMITA-SHARAD    
1 41994U 17008AY  22309.65303708  .00051172  00000+0  11702-2 0  9999
2 41994  97.2509  13.6108 0005629  83.2049 276.9839 15.42645463318116
LEMUR-2-RDEATON         
1 41995U 17008AZ  22310.12042691  .00022168  00000+0  64768-3 0  9999
2 41995  97.2476   9.6702 0008310 100.8207 259.3973 15.35276529318600
LEMUR-2-TACHIKOMA       
1 41996U 17008BA  22310.16444800  .00037299  00000+0  88552-3 0  9990
2 41996  97.2565  14.3386 0006871  95.9307 264.2723 15.41581910318064
LEMUR-2-NOGUECORREIG    
1 41997U 17008BB  22309.61696204  .00045230  00000+0  10323-2 0  9990
2 41997  97.2535  14.3547 0006470  94.1556 266.0431 15.42727959318122
LEMUR-2-MIA-GRACE       
1 41998U 17008BC  22310.39334536  .00019214  00000+0  56317-3 0  9992
2 41998  97.2455   9.4796 0007938 102.8836 257.3295 15.35207468317864
LEMUR-2-ANGELA          
1 42752U 17019B   22310.43089409  .00052543  00000+0  90430-3 0  9990
2 42752  51.6308 262.6437 0005326 173.2378 186.8684 15.50552605303137
LEMUR-2-JENNYBARNA      
1 42753U 17019C   22310.33840917  .00212282  00000+0  14020-2 0  9997
2 42753  51.6236 224.1385 0007099 167.3460 192.7718 15.74379551303595
LEMUR-2-ROBMOORE        
1 42754U 17019D   22310.37009493  .00040680  00000+0  75805-3 0  9998
2 42754  51.6314 265.1882 0003954 182.9833 177.1132 15.48409971303074
LEMUR-2-SPIROVISION     
1 42755U 17019E   22310.11095712  .00228229  00000+0  16456-2 0  9993
2 42755  51.6302 226.7287 0010541 181.7577 312.3861 15.72242404303453
LEMUR-2-SHAINAJOHL      
1 42771U 17036G   22310.39407685  .00025678  00000+0  75358-3 0  9996
2 42771  97.1863 348.0842 0011092 159.9474 200.2208 15.35079866298720
LEMUR-2-XUENITERENCE    
1 42772U 17036H   22310.07247539  .00040322  00000+0  10927-2 0  9995
2 42772  97.1757 348.0511 0010286 155.0328 205.1416 15.37486305298733
LEMUR-2-LUCYBRYCE       
1 42773U 17036J   22310.35648149  .00024898  00000+0  79235-3 0  9997
2 42773  97.1893 347.9524 0011217 161.4642 198.7011 15.32511785298668
LEMUR-2-KUNGFOO         
1 42774U 17036K   22310.10498189  .00029638  00000+0  85870-3 0  9997
2 42774  97.1855 348.2913 0010537 156.8171 203.3550 15.35460805298707
LEMUR-2-LYNSEY-SYMO     
1 42779U 17036Q   22310.10795309  .00035808  00000+0  92030-3 0  9998
2 42779  97.1878 353.3081 0009043 154.3860 205.7835 15.39158193298988
LEMUR-2-LISASAURUS      
1 42780U 17036R   22309.54794443  .00036556  00000+0  10434-2 0  9992
2 42780  97.1871 348.9309 0009063 166.4634 193.6856 15.35902435298666
LEMUR-2-SAM-AMELIA      
1 42781U 17036S   22310.35162832  .00011882  00000+0  38840-3 0  9992
2 42781  97.1890 350.1238 0010050 164.6813 195.4735 15.31819781298787
LEMUR-2-MCPEAKE         
1 42782U 17036T   22310.06276466  .00027070  00000+0  77095-3 0  9991
2 42782  97.1870 351.2165 0009180 158.0074 202.1566 15.36031657298865
LEMUR-2-GREENBERG       
1 42837U 17042N   22310.12392944  .00004497  00000+0  42233-3 0  9990
2 42837  97.4093 159.8966 0011033 239.7951 120.2178 14.94371311289426
LEMUR-2-ANDIS           
1 42838U 17042P   22310.11882512  .00004317  00000+0  40524-3 0  9997
2 42838  97.4076 159.8191 0011206 239.4713 120.5402 14.94407127289421
LEMUR-2-MONSON          
1 42839U 17042Q   22310.15931383  .00003397  00000+0  32188-3 0  9997
2 42839  97.4098 159.5980 0010721 239.9362 120.0797 14.94174183289408
LEMUR-2-FURIAUS         
1 42840U 17042R   22309.90212051  .00005003  00000+0  47623-3 0  9990
2 42840  97.4131 159.7081 0011223 242.5838 117.4242 14.93782233289368
LEMUR-2-PETERG          
1 42841U 17042S   22310.10834492  .00003212  00000+0  30491-3 0  9999
2 42841  97.4152 161.0812 0010809 236.8791 123.1393 14.94139900289463
LEMUR-2-DEMBITZ         
1 42842U 17042T   22310.13008339  .00004433  00000+0  41407-3 0  9991
2 42842  97.4120 160.9812 0010718 236.0234 123.9969 14.94590398289470
LEMUR-2-ZACHARY         
1 42845U 17042W   22310.40097946  .00005664  00000+0  51666-3 0  9991
2 42845  97.4008 160.3714 0010641 234.8601 125.1624 14.95421770289562
LEMUR-2-MCCAFFERTY      
1 43123U 18004N   22310.20162017  .00040807  00000+0  92380-3 0  9996
2 43123  97.3669  30.3561 0005909 188.3311 171.7840 15.42998925268368
LEMUR-2-PETERWEBSTER    
1 43124U 18004P   22310.21690171  .00038035  00000+0  88151-3 0  9996
2 43124  97.3668  29.9045 0006185 191.9630 168.1472 15.42308327268340
LEMUR-2-BROWNCOW        
1 43125U 18004Q   22309.84128042  .00059953  00000+0  12510-2 0  9994
2 43125  97.3734  31.7207 0005820 188.7320 171.3829 15.45323907268404
LEMUR-2-DAVEWILSON      
1 43126U 18004R   22309.66709517  .00061326  00000+0  12572-2 0  9992
2 43126  97.3709  31.3949 0005662 191.1496 168.9629 15.45838818268370
LEMUR-2-MARSHALL        
1 43165U 18010C   22309.68212712  .00022063  00000+0  67418-3 0  9995
2 43165  82.9094 291.7646 0024340 180.9670 179.1530 15.33451881266090
LEMUR-2-TALLHAMN-ATC    
1 43167U 18010E   22309.69349405  .00026282  00000+0  91462-3 0  9991
2 43167  82.9127 298.6280 0018448 206.2215 153.8094 15.29396298265670
LEMUR-2-JIN-LUEN        
1 43182U 18014C   22309.58561147  .00006095  00000+0  49107-3 0  9998
2 43182  97.6290 210.7300 0015527 187.9849 172.1130 15.00190504260044
LEMUR-2-URAMCHANSOL     
1 43183U 18014D   22309.66138602  .00008197  00000+0  65541-3 0  9999
2 43183  97.6309 211.0343 0016035 172.9038 187.2415 15.00371880260069
LEMUR-2-KADI            
1 43184U 18014E   22310.27272451  .00006031  00000+0  49160-3 0  9994
2 43184  97.6330 211.4380 0013949 170.1071 190.0430 14.99763278260148
LEMUR-2-THENICKMOLO     
1 43185U 18014F   22310.15661032  .00007199  00000+0  58117-3 0  9997
2 43185  97.6424 211.6139 0010371 166.8929 193.2566 15.00104268260132
LEMUR-2-VU              
1 43558U 18046E   22309.65732167  .00103439  00000+0  12192-2 0  9993
2 43558  51.6329 184.7067 0009552 188.5764 171.5067 15.60500371241479
LEMUR-2-ALEXANDER       
1 43559U 18046F   22310.19266303  .00126034  00000+0  11440-2 0  9990
2 43559  51.6356 177.8273 0009190 206.7408 153.3116 15.67045146241393
LEMUR-2-YUASA           
1 43560U 18046G   22310.04402202  .00139977  00000+0  13843-2 0  9995
2 43560  51.6373 182.0666 0008751 207.7068 152.3462 15.64859090241541
LEMUR-2-TOMHENDERSON    
1 43561U 18046H   22310.12760834  .00070011  00000+0  93203-3 0  9995
2 43561  51.6386 187.8274 0009564 195.4558 164.6144 15.57454525241037
LEMUR-2-ZUPANSKI        
1 43695U 18088F   22310.20169958  .00025592  00000+0  79452-3 0  9992
2 43695  85.0310 218.5145 0011158 348.8532  11.2467 15.33184262221552
LEMUR-2-CHANUSIAK       
1 43697U 18088H   22309.26835985  .00042858  00000+0  12580-2 0  9990
2 43697  85.0366 219.1026 0009114 328.3630  31.7070 15.34933001221574
LEMUR-2-ORZULAK         
1 43731U 18096N   22309.82841438  .00116807  00000+0  15230-2 0  9991
2 43731  97.3577  37.5236 0012777 251.7839 108.2027 15.58221779220138
LEMUR-2-KOBYSZCZE       
1 43732U 18096P   22309.21800073  .00114400  00000+0  14805-2 0  9999
2 43732  97.3600  37.4336 0012661 253.8200 106.1663 15.58431450220067
LEMUR-2-DULY            
1 43745U 18096AC  22309.83390324  .00092835  00000+0  13708-2 0  9992
2 43745  97.3576  37.3858 0012483 252.6145 107.3744 15.54945561220138
LEMUR-2-VLADIMIR        
1 43746U 18096AD  22310.20787529  .00159107  00000+0  16418-2 0  9990
2 43746  97.3564  39.2890 0013623 259.3185 100.6540 15.64170478220316
LEMUR-2-CHRISTINAHOLT   
1 43882U 18111G   22309.68172777  .00008158  00000+0  64895-3 0  9994
2 43882  97.6604 215.1793 0008815 150.7500 209.4219 15.00641973210935
LEMUR-2-TINYKEV         
1 43883U 18111H   22309.65889026  .00009569  00000+0  74993-3 0  9991
2 43883  97.6516 215.3831 0014922 165.7694 194.3953 15.01104715210946
LEMUR-2-REMY-COLTON     
1 43884U 18111J   22310.40785057  .00006862  00000+0  54061-3 0  9993
2 43884  97.6602 216.6722 0000685 248.2124 111.9027 15.01097712209080
LEMUR-2-GUSTAVO         
1 43885U 18111K   22309.80512778  .00008339  00000+0  66186-3 0  9996
2 43885  97.6587 215.6802 0013907 165.5672 194.5952 15.00674745208967
LEMUR-2-ZO              
1 43886U 18111L   22309.32249279  .00007478  00000+0  59243-3 0  9996
2 43886  97.6592 215.5291 0017271 196.6457 163.4202 15.00742788208909
LEMUR-2-NATALIEMURRAY   
1 43887U 18111M   22310.00730023  .00008243  00000+0  65091-3 0  9995
2 43887  97.6608 216.5097 0010016 134.2140 225.9908 15.00910331211025
LEMUR-2-SARAHBETTYBOO   
1 43888U 18111N   22309.69667524  .00009334  00000+0  73347-3 0  9999
2 43888  97.6783 216.5008 0010359 230.8367 129.1937 15.01058271210984
LEMUR-2-DAISY-HARPER    
1 43889U 18111P   22309.69285296  .00009443  00000+0  74162-3 0  9999
2 43889  97.6747 216.6872 0008817 237.8520 122.1850 15.01088838210988
